NORAD_CAT_ID,OBJECT_NAME,OBJECT_TYPE,EPOCH,MEAN_MOTION,ECCENTRICITY,INCLINATION,RA_OF_ASC_NODE,ARG_OF_PERICENTER,MEAN_ANOMALY,BSTAR,MEAN_MOTION_DOT,MEAN_MOTION_DDOT,TLE_LINE0,TLE_LINE1,TLE_LINE2,SEMIMAJOR_AXIS,PERIOD,APOGEE,PERIGEE,DECAYED
54794.0,STARLINK-5392,PAYLOAD,2024-04-03 21:05:00,15.12122673,0.000121,53.2181,315.8509,82.8525,277.2606,-4.7558e-05,-1.126e-05,0.0,0 STARLINK-5392,1 54794U 22175AN  24094.87847654 -.00001126  00000-0 -47558-4 0  9999,2 54794  53.2181 315.8509 0001210  82.8525 277.2606 15.12122673 71532,6907.865,95.23,530.566,528.894,0.0
54794.0,STARLINK-5392,PAYLOAD,2024-04-04 08:11:15,15.12117299,0.0001149,53.2182,313.7631,84.9316,275.1809,2.5891e-05,1.54e-06,0.0,0 STARLINK-5392,1 54794U 22175AN  24095.34115050  .00000154  00000-0  25891-4 0  9994,2 54794  53.2182 313.7631 0001149  84.9316 275.1809 15.12117299 73765,6907.881,95.231,530.54,528.952,0.0
54794.0,STARLINK-5392,PAYLOAD,2024-04-04 20:52:41,15.12119088,0.0001203,53.2184,311.3759,93.8813,266.2318,1.3346e-05,-6.5e-07,0.0,0 STARLINK-5392,1 54794U 22175AN  24095.86992026 -.00000065  00000-0  13346-4 0  9991,2 54794  53.2184 311.3759 0001203  93.8813 266.2318 15.12119088 73847,6907.876,95.231,530.572,528.91,0.0
54794.0,STARLINK-5392,PAYLOAD,2024-04-05 04:48:35,15.12113214,0.0001224,53.2182,309.885,85.5855,274.5279,-3.786e-05,-9.57e-06,0.0,0 STARLINK-5392,1 54794U 22175AN  24096.20040677 -.00000957  00000-0 -37860-4 0  9994,2 54794  53.2182 309.8850 0001224  85.5855 274.5279 15.12113214 71735,6907.894,95.231,530.604,528.913,0.0
54794.0,STARLINK-5392,PAYLOAD,2024-04-05 20:40:22,15.12116508,0.0001193,53.2181,306.9022,93.032,267.081,-4.1804e-06,-3.7e-06,0.0,0 STARLINK-5392,1 54794U 22175AN  24096.86136675 -.00000370  00000-0 -41804-5 0  9993,2 54794  53.2181 306.9022 0001193  93.0320 267.0810 15.12116508 73996,6907.884,95.231,530.573,528.924,0.0
54794.0,STARLINK-5392,PAYLOAD,2024-04-06 14:07:20,15.12113234,0.0001231,53.2176,303.6217,92.6681,267.4453,-1.5058e-05,-5.6e-06,0.0,0 STARLINK-5392,1 54794U 22175AN  24097.58842922 -.00000560  00000-0 -15058-4 0  9994,2 54794  53.2176 303.6217 0001231  92.6681 267.4453 15.12113234 74102,6907.893,95.231,530.609,528.908,0.0
54794.0,STARLINK-5392,PAYLOAD,2024-04-06 20:28:03,15.12113925,0.0001221,53.2173,302.4295,91.7225,268.3908,-9.6329e-06,-4.65e-06,0.0,0 STARLINK-5392,1 54794U 22175AN  24097.85281412 -.00000465  00000-0 -96329-5 0  9990,2 54794  53.2173 302.4295 0001221  91.7225 268.3908 15.12113925 74141,6907.891,95.231,530.6,528.913,0.0
54794.0,STARLINK-5392,PAYLOAD,2024-04-07 13:55:01,15.12111069,0.0001202,53.217,299.1492,88.7553,271.3578,2.0739e-05,6.4e-07,0.0,0 STARLINK-5392,1 54794U 22175AN  24098.57987492  .00000064  00000-0  20739-4 0  9995,2 54794  53.2170 299.1492 0001202  88.7553 271.3578 15.12111069 74254,6907.9,95.231,530.595,528.935,0.0
54794.0,STARLINK-5392,PAYLOAD,2024-04-07 20:15:44,15.12112872,0.0001186,53.2171,297.9562,88.043,272.07,-8.6453e-06,-4.48e-06,0.0,0 STARLINK-5392,1 54794U 22175AN  24098.84426072 -.00000448  00000-0 -86453-5 0  9991,2 54794  53.2171 297.9562 0001186  88.0430 272.0700 15.12112872 72130,6907.895,95.231,530.579,528.94,0.0
54794.0,STARLINK-5392,PAYLOAD,2024-04-08 23:13:46,15.12110939,0.0001392,53.2176,292.8867,89.4611,270.6542,-1.2532e-05,-5.16e-06,0.0,0 STARLINK-5392,1 54794U 22175AN  24099.96790220 -.00000516  00000-0 -12532-4 0  9996,2 54794  53.2176 292.8867 0001392  89.4611 270.6542 15.12110939 74460,6907.9,95.231,530.727,528.804,0.0
54794.0,STARLINK-5392,PAYLOAD,2024-04-09 05:34:29,15.12112574,0.0001559,53.2196,291.6948,91.4756,268.6416,-2.3949e-06,-3.39e-06,0.0,0 STARLINK-5392,1 54794U 22175AN  24100.23228681 -.00000339  00000-0 -23949-5 0  9994,2 54794  53.2196 291.6948 0001559  91.4756 268.6416 15.12112574 74506,6907.895,95.231,530.837,528.684,0.0
54794.0,STARLINK-5392,PAYLOAD,2024-04-09 21:26:16,15.12113245,0.000132,53.2181,288.7122,89.2885,270.826,8.3279e-06,-1.52e-06,0.0,0 STARLINK-5392,1 54794U 22175AN  24100.89324955 -.00000152  00000-0  83279-5 0  9991,2 54794  53.2181 288.7122 0001320  89.2885 270.8260 15.12113245 74604,6907.893,95.231,530.67,528.847,0.0
54794.0,STARLINK-5392,PAYLOAD,2024-04-10 05:22:10,15.12112442,0.0001292,53.2183,287.2209,86.6111,273.503,1.5646e-05,-2.5e-07,0.0,0 STARLINK-5392,1 54794U 22175AN  24101.22373204 -.00000025  00000-0  15646-4 0  9991,2 54794  53.2183 287.2209 0001292  86.6111 273.5030 15.12112442 72495,6907.896,95.231,530.653,528.868,0.0
54794.0,STARLINK-5392,PAYLOAD,2024-04-10 21:13:57,15.12114499,0.0001363,53.2189,284.2392,88.3249,271.79,-1.1712e-05,-5.01e-06,0.0,0 STARLINK-5392,1 54794U 22175AN  24101.88469732 -.00000501  00000-0 -11712-4 0  9995,2 54794  53.2189 284.2392 0001363  88.3249 271.7900 15.12114499 74752,6907.89,95.231,530.696,528.813,0.0
54794.0,STARLINK-5392,PAYLOAD,2024-04-11 11:30:34,15.12117337,0.000135,53.219,281.5549,87.5269,272.5879,1.0704e-05,-1.11e-06,0.0,0 STARLINK-5392,1 54794U 22175AN  24102.47956198 -.00000111  00000-0  10704-4 0  9994,2 54794  53.2190 281.5549 0001350  87.5269 272.5879 15.12117337 72685,6907.881,95.231,530.679,528.813,0.0
54794.0,STARLINK-5392,PAYLOAD,2024-04-11 19:26:27,15.12111679,0.0001571,53.2195,280.0626,82.3264,277.7908,6.6041e-05,8.53e-06,0.0,0 STARLINK-5392,1 54794U 22175AN  24102.81004493  .00000853  00000-0  66041-4 0  9991,2 54794  53.2195 280.0626 0001571  82.3264 277.7908 15.12111679 74891,6907.898,95.231,530.848,528.678,0.0
54794.0,STARLINK-5392,PAYLOAD,2024-04-12 11:18:15,15.12114962,0.0001397,53.2189,277.08,84.2333,275.882,3.2475e-05,2.68e-06,0.0,0 STARLINK-5392,1 54794U 22175AN  24103.47100856  .00000268  00000-0  32475-4 0  9998,2 54794  53.2189 277.0800 0001397  84.2333 275.8820 15.12114962 74999,6907.888,95.231,530.718,528.788,0.0
54794.0,STARLINK-5392,PAYLOAD,2024-04-13 17:26:38,15.12120596,0.0001552,53.219,271.4145,71.9961,288.1202,3.3778e-05,2.91e-06,0.0,0 STARLINK-5392,1 54794U 22175AN  24104.72683722  .00000291  00000-0  33778-4 0  9998,2 54794  53.2190 271.4145 0001552  71.9961 288.1202 15.12120596 73028,6907.871,95.23,530.808,528.664,0.0
54794.0,STARLINK-5392,PAYLOAD,2024-04-14 17:14:19,15.12117618,0.000148,53.2196,266.9416,85.847,274.2693,2.863e-05,2.01e-06,0.0,0 STARLINK-5392,1 54794U 22175AN  24105.71828344  .00000201  00000-0  28630-4 0  9991,2 54794  53.2196 266.9416 0001480  85.8470 274.2693 15.12117618 75330,6907.88,95.231,530.767,528.723,0.0
54794.0,STARLINK-5392,PAYLOAD,2024-04-15 10:41:16,15.12142759,0.0001391,53.2184,263.656,74.1728,285.9419,-0.000103,-2.093e-05,0.0,0 STARLINK-5392,1 54794U 22175AN  24106.44533321 -.00002093  00000-0 -10300-3 0  9997,2 54794  53.2184 263.6560 0001391  74.1728 285.9419 15.12142759 73280,6907.804,95.229,530.629,528.708,0.0
54794.0,STARLINK-5392,PAYLOAD,2024-04-15 13:51:38,15.12119642,0.0001159,53.2183,263.0595,84.5448,275.5677,0.00014899,2.3e-05,0.0,0 STARLINK-5392,1 54794U 22175AN  24106.57752353  .00002300  00000-0  14899-3 0  9995,2 54794  53.2183 263.0595 0001159  84.5448 275.5677 15.12119642 75465,6907.874,95.231,530.54,528.938,0.0
54794.0,STARLINK-5392,PAYLOAD,2024-04-15 20:12:21,15.12133595,0.0001326,53.2193,261.8735,78.679,281.4352,-0.00010784,-2.177e-05,0.0,0 STARLINK-5392,1 54794U 22175AN  24106.84191184 -.00002177  00000-0 -10784-3 0  9997,2 54794  53.2193 261.8735 0001326  78.6790 281.4352 15.12133595 73342,6907.831,95.23,530.612,528.78,0.0
54794.0,STARLINK-5392,PAYLOAD,2024-04-16 10:28:58,15.1211882,0.0001157,53.2178,259.1873,65.9338,294.1776,-6.5527e-05,-1.439e-05,0.0,0 STARLINK-5392,1 54794U 22175AN  24107.43678646 -.00001439  00000-0 -65527-4 0  9992,2 54794  53.2178 259.1873 0001157  65.9338 294.1776 15.12118820 73432,6907.876,95.231,530.541,528.942,0.0
54794.0,STARLINK-5392,PAYLOAD,2024-04-16 13:39:19,15.12118969,0.0001166,53.2179,258.591,66.1312,293.9804,-6.2099e-05,-1.379e-05,0.0,0 STARLINK-5392,1 54794U 22175AN  24107.56897850 -.00001379  00000-0 -62099-4 0  9990,2 54794  53.2179 258.5910 0001166  66.1312 293.9804 15.12118969 75618,6907.876,95.231,530.546,528.936,0.0
54794.0,STARLINK-5392,PAYLOAD,2024-04-16 16:49:40,15.12121452,0.0001196,53.2173,257.9917,76.134,283.9787,-8.9366e-06,-4.53e-06,0.0,0 STARLINK-5392,1 54794U 22175AN  24107.70116652 -.00000453  00000-0 -89366-5 0  9999,2 54794  53.2173 257.9917 0001196  76.1340 283.9787 15.12121452 75639,6907.868,95.23,530.56,528.907,0.0
54794.0,STARLINK-5392,PAYLOAD,2024-04-17 10:16:37,15.12136251,0.0001202,53.2176,254.7103,77.0605,283.0523,-1.9854e-05,-6.43e-06,0.0,0 STARLINK-5392,1 54794U 22175AN  24108.42821238 -.00000643  00000-0 -19854-4 0  9997,2 54794  53.2176 254.7103 0001202  77.0605 283.0523 15.12136251 73580,6907.823,95.23,530.519,528.858,0.0
54794.0,STARLINK-5392,PAYLOAD,2024-04-17 13:26:59,15.12115149,0.0001389,53.2172,254.1138,75.2523,284.8625,0.00023834,3.857e-05,0.0,0 STARLINK-5392,1 54794U 22175AN  24108.56040514  .00003857  00000-0  23834-3 0  9992,2 54794  53.2172 254.1138 0001389  75.2523 284.8625 15.12115149 75760,6907.888,95.231,530.712,528.793,0.0
54794.0,STARLINK-5392,PAYLOAD,2024-04-17 16:37:21,15.12052399,0.0001665,53.2177,253.518,83.2017,276.9166,0.001013,0.00017363,0.0,0 STARLINK-5392,1 54794U 22175AN  24108.69260664  .00017363  00000-0  10130-2 0  9997,2 54794  53.2177 253.5180 0001665  83.2017 276.9166 15.12052399 73621,6908.079,95.235,531.094,528.794,0.0
54794.0,STARLINK-5392,PAYLOAD,2024-04-18 13:14:40,15.12110335,0.0001193,53.218,249.642,82.5122,277.6007,-0.00010257,-2.083e-05,0.0,0 STARLINK-5392,1 54794U 22175AN  24109.55185716 -.00002083  00000-0 -10257-3 0  9993,2 54794  53.2180 249.6420 0001193  82.5122 277.6007 15.12110335 73754,6907.902,95.231,530.591,528.943,0.0
54794.0,STARLINK-5392,PAYLOAD,2024-04-18 14:49:50,15.12112542,0.0001263,53.2177,249.3434,97.5392,262.5745,-8.8858e-05,-1.845e-05,0.0,0 STARLINK-5392,1 54794U 22175AN  24109.61795105 -.00001845  00000-0 -88858-4 0  9997,2 54794  53.2177 249.3434 0001263  97.5392 262.5745 15.12112542 75920,6907.896,95.231,530.633,528.888,0.0
